OBJECT B                
1 51825U 22019B   26099.94780219  .00069706  00000+0  67989-3 0  9990
2 51825  97.3486 188.5761 0004779  19.1463 340.9975 15.65988242229052
